STARLINK-1443           
1 45660U 20035D   21119.44603246  .00000865  00000-0  76917-4 0  9997
2 45660  53.0575 115.9839 0000636  80.0024 280.1037 15.06403389 51166
STARLINK-1444           
1 45661U 20035E   21119.46442605  .00001440  00000-0  11548-3 0  9998
2 45661  53.0566 115.9020 0000695  84.0798 276.0270 15.06415100 51163
STARLINK-1445           
1 45662U 20035F   21119.47921425  .00000473  00000-0  50645-4 0  9999
2 45662  53.0568 115.8300 0000754  79.0382 281.0692 15.06395176 51169
STARLINK-1446           
1 45663U 20035G   21119.41652678 -.00001106  00000-0 -55362-4 0  9992
2 45663  53.0574 116.1131 0000828  74.0324 286.0756 15.06395061 51154
STARLINK-1448           
1 45665U 20035J   21119.44969634  .00000409  00000-0  46325-4 0  9992
2 45665  53.0571 115.9657 0000661  70.8223 289.2837 15.06408336 51155
STARLINK-1449           
1 45666U 20035K   21119.45612770 -.00001190  00000-0 -61015-4 0  9993
2 45666  53.0584 115.9479 0000850  62.9875 297.1201 15.06394446 51156
STARLINK-1450           
1 45667U 20035L   21119.45341047  .00000906  00000-0  79700-4 0  9992
2 45667  53.0573 115.9656 0001095  81.3346 278.7767 15.06396204 51158
STARLINK-1451           
1 45668U 20035M   21119.42758684 -.00000837  00000-0 -37358-4 0  9997
2 45668  53.0565 116.0811 0000409  86.3446 273.7590 15.06393708 51165
STARLINK-1452           
1 45669U 20035N   21119.27277065  .00000642  00000-0  61975-4 0  9994
2 45669  53.0578 116.7645 0000761  69.2317 290.8754 15.06404611 51135
STARLINK-1453           
1 45670U 20035P   21119.33083647  .00000709  00000-0  66454-4 0  9995
2 45670  53.0577  86.5005 0000992  85.0779 275.0323 15.06401137 51456
STARLINK-1454           
1 45671U 20035Q   21119.47551874  .00000325  00000-0  40722-4 0  9997
2 45671  53.0576 115.8534 0000772  79.3610 280.7466 15.06393622 51152
STARLINK-1455           
1 45672U 20035R   21119.41929315 -.00000802  00000-0 -34962-4 0  9992
2 45672  53.0581  86.1068 0000958  55.7854 304.3226 15.06394491 51573
STARLINK-1456           
1 45673U 20035S   21119.42390112 -.00000779  00000-0 -33398-4 0  9996
2 45673  53.0567 116.0822 0001202 104.7231 255.3891 15.06399761 51169
STARLINK-1457           
1 45674U 20035T   21119.29860849 -.00001587  00000-0 -87793-4 0  9997
2 45674  53.0576 116.6482 0000580  80.3219 279.7835 15.06366573 51119
STARLINK-1458           
1 45675U 20035U   21119.42021546 -.00001169  00000-0 -59599-4 0  9995
2 45675  53.0576 116.1104 0000714  78.8502 281.2567 15.06393339 51123
STARLINK-1460           
1 45676U 20035V   21119.39073216  .00000550  00000-0  55783-4 0  9995
2 45676  53.0569 116.2443 0000690  84.0966 276.0102 15.06391447 51113
STARLINK-1392           
1 45677U 20035W   21119.46811702  .00002733  00000-0  20226-3 0  9992
2 45677  53.0587 115.8922 0000737  72.3080 287.7989 15.06408961 51167
STARLINK-1393           
1 45678U 20035X   21119.46169084  .00000805  00000-0  72900-4 0  9997
2 45678  53.0574 105.9131 0000644  83.5780 276.5282 15.06401545 51280
STARLINK-1394           
1 45679U 20035Y   21119.46536457 -.00001064  00000-0 -52555-4 0  9994
2 45679  53.0563 105.8930 0000701 152.7529 207.3497 15.06394094 51302
STARLINK-1395           
1 45680U 20035Z   21119.27369899  .00000380  00000-0  44425-4 0  9994
2 45680  53.0583 106.7603 0000898  79.8102 280.2988 15.06390768 51260
STARLINK-1396           
1 45681U 20035AA  21119.33634963  .00000219  00000-0  33594-4 0  9995
2 45681  53.0572 106.4902 0000548  63.3828 296.7217 15.06405495 51286
STARLINK-1397           
1 45682U 20035AB  21119.47642034 -.00000988  00000-0 -47514-4 0  9991
2 45682  53.0569 105.8413 0000321 197.5792 162.5186 15.06392447 51290
STARLINK-1399           
1 45683U 20035AC  21119.39164464 -.00001284  00000-0 -67355-4 0  9994
2 45683  53.0565 106.2213 0001078  65.8247 294.2855 15.06394820 51295
STARLINK-1401           
1 45684U 20035AD  21119.23683918  .00000206  00000-0  32728-4 0  9995
2 45684  53.0578 106.9261 0000858  69.2532 290.8549 15.06407948 51276
STARLINK-1402           
1 45685U 20035AE  21119.43219407  .00000623  00000-0  60681-4 0  9998
2 45685  53.0597 106.0516 0000828  74.5924 285.5157 15.06400430 51302
STARLINK-1404           
1 45686U 20035AF  21119.35846228  .00000759  00000-0  69801-4 0  9990
2 45686  53.0578 106.3895 0000677  64.7790 295.3269 15.06410859 51296
STARLINK-1406           
1 45687U 20035AG  21119.33068543  .00000625  00000-0  62006-4 0  9997
2 45687  53.0010  96.5021 0000600  63.6869 296.4180 15.05595877 51411
STARLINK-1408           
1 45688U 20035AH  21119.41745084 -.00000802  00000-0 -34941-4 0  9995
2 45688  53.0575 106.1173 0001145 167.7494 192.3523 15.06395680 51291
STARLINK-1413           
1 45689U 20035AJ  21119.44325379  .00000689  00000-0  65112-4 0  9995
2 45689  53.0569 105.9999 0000796  38.1119 321.9927 15.06407250 51211
STARLINK-1414           
1 45690U 20035AK  21119.46533334  .00000371  00000-0  44591-4 0  9997
2 45690  52.9992 105.8979 0000795  59.8996 300.2071 15.05583460 51295
STARLINK-1415           
1 45691U 20035AL  21119.42852736  .00000425  00000-0  47438-4 0  9997
2 45691  53.0566 106.0623 0000735  68.7770 291.3297 15.06399906 51300
STARLINK-1416           
1 45692U 20035AM  21119.35478058  .00000516  00000-0  53541-4 0  9994
2 45692  53.0575 106.3896 0001051  80.6162 279.4946 15.06400822 51281
STARLINK-1417           
1 45693U 20035AN  21119.43956558 -.00000775  00000-0 -33141-4 0  9993
2 45693  53.0580 106.0208 0000929  90.0129 270.0966 15.06396311 51290
STARLINK-1419           
1 45694U 20035AP  21119.44695901  .00001114  00000-0  93640-4 0  9993
2 45694  53.0577 105.9803 0000899  63.3579 296.7502 15.06397723 51293
STARLINK-1420           
1 45695U 20035AQ  21119.37505929 -.00000625  00000-0 -23055-4 0  9997
2 45695  53.0580  86.3018 0001055  85.9927 274.1182 15.06394011 51572
STARLINK-1422           
1 45696U 20035AR  21119.45062557 -.00000519  00000-0 -15936-4 0  9993
2 45696  53.0578 105.9738 0001031  64.1378 295.9717 15.06397927 51293
STARLINK-1351           
1 45697U 20035AS  21119.29397120 -.00001075  00000-0 -53287-4 0  9992
2 45697  53.0588  86.6776 0000958  65.6041 294.5048 15.06395684 51562
STARLINK-1370           
1 45698U 20035AT  21119.34926335  .00000823  00000-0  74109-4 0  9999
2 45698  53.0583  86.4217 0000740  58.3911 301.7151 15.06404564 51575
STARLINK-1398           
1 45699U 20035AU  21119.40454349 -.00000693  00000-0 -27628-4 0  9999
2 45699  53.0576  86.1688 0000825  56.6564 303.4504 15.06397419 51577
STARLINK-1400           
1 45700U 20035AV  21119.40085705  .00000905  00000-0  79649-4 0  9992
2 45700  53.0571  86.1858 0000849  65.3613 294.7464 15.06396912 51576
STARLINK-1403           
1 45701U 20035AW  21119.43035149  .00000704  00000-0  66158-4 0  9991
2 45701  53.0581  86.0683 0000879  67.1112 292.9969 15.06399226 51571
STARLINK-1405           
1 45702U 20035AX  21119.41191717  .00000778  00000-0  71089-4 0  9994
2 45702  53.0584  86.1384 0000638  55.5280 304.5770 15.06396994 51573
STARLINK-1407           
1 45703U 20035AY  21119.40823285  .00000705  00000-0  66222-4 0  9999
2 45703  53.0565  86.1458 0001229  62.6780 297.4334 15.06400656 51573
STARLINK-1409           
1 45704U 20035AZ  21119.43863273  .00001106  00000-0  93118-4 0  9994
2 45704  53.0581 116.0255 0000711 103.4690 256.6378 15.06403866 51165
STARLINK-1410           
1 45705U 20035BA  21119.46076998  .00000421  00000-0  47139-4 0  9999
2 45705  53.0565 115.9175 0000529  41.3788 318.7241 15.06405821 51153
STARLINK-1411           
1 45706U 20035BB  21119.31977078 -.00000956  00000-0 -45299-4 0  9993
2 45706  53.0577  86.5487 0001290  50.7310 309.3793 15.06393134 51552
STARLINK-1412           
1 45707U 20035BC  21119.31607885  .00000747  00000-0  69017-4 0  9990
2 45707  53.0581  86.5684 0000718  42.0802 318.0242 15.06407570 51568
STARLINK-1418           
1 45708U 20035BD  21119.42298241  .00001126  00000-0  94442-4 0  9997
2 45708  53.0576  86.0843 0001237  61.7240 298.3873 15.06401343 51580
STARLINK-1421           
1 45709U 20035BE  21119.39348370  .00001317  00000-0  10731-3 0  9993
2 45709  53.0575  86.2186 0000674  94.2543 265.8523 15.06394483 51535
STARLINK-1423           
1 45710U 20035BF  21119.32345061  .00000730  00000-0  67887-4 0  9995
2 45710  53.0571  86.5343 0000733  53.6468 306.4589 15.06405769 51569
STARLINK-1433           
1 45711U 20035BG  21119.37137252 -.00000806  00000-0 -35252-4 0  9999
2 45711  53.0581  86.3204 0001095  48.5735 311.5348 15.06398826 51562
STARLINK-1434           
1 45712U 20035BH  21119.36768872 -.00000910  00000-0 -42217-4 0  9992
2 45712  53.0588  86.3375 0000749  94.8177 265.2897 15.06398163 51577
STARLINK-1436           
1 45713U 20035BJ  21119.45430681  .00000672  00000-0  64009-4 0  9993
2 45713  53.0571 105.9439 0001024  56.7064 303.4023 15.06390403 51292
STARLINK-1437           
1 45714U 20035BK  21119.31239939  .00000466  00000-0  50150-4 0  9995
2 45714  53.0582  86.5866 0000985  63.0334 297.0755 15.06403643 51560
STARLINK-1438           
1 45715U 20035BL  21119.22630361  .00079713  14585-4  91887-4 0  9990
2 45715  52.9677 305.0689 0008450 274.1932  85.8134 16.08850748 53493
STARLINK-1439           
1 45716U 20035BM  21119.04470603  .00010938  00000-0  16212-3 0  9997
2 45716  52.9982   6.1088 0001360  76.6727 283.4434 15.55831415 52663
STARLINK-1461           
1 45730U 20038A   21119.45614031  .00001053  00000-0  89610-4 0  9997
2 45730  53.0576 285.9484 0001640 106.8053 253.3116 15.06399592 48632
STARLINK-1465           
1 45731U 20038B   21119.20550259 -.00000392  00000-0 -74109-5 0  9997
2 45731  53.0560 287.0718 0001501 111.9165 248.1984 15.06398016 48585
STARLINK-1466           
1 45732U 20038C   21119.45983579 -.00000581  00000-0 -20111-4 0  9993
2 45732  53.0568 285.9304 0001388 109.9053 250.2086 15.06391262 48626
STARLINK-1467           
1 45733U 20038D   21119.46720765 -.00001001  00000-0 -48319-4 0  9999
2 45733  53.0593 285.8890 0001375 114.3439 245.7693 15.06390735 48625
